{
  "norad_id": 66179,
  "name": "STARLINK-35346",
  "history": [
    {
      "epoch": "2026-03-28T21:42:16.914816Z",
      "apogee_km": 476.22525272700204,
      "perigee_km": 474.0979888351112,
      "latitude_deg": 1.4895406136267106e-05,
      "longitude_deg": 4.25181647342271,
      "height_km": 475.96222560612284,
      "semi_major_axis_km": 6853.298620781056,
      "eccentricity": 0.0001552,
      "inclination_deg": 53.1608,
      "raan_deg": 156.1404,
      "arg_perigee_deg": 84.7578,
      "mean_anomaly_deg": 275.36,
      "mean_motion_rev_day": 15.30217901
    }
  ]
}